1 01315U 65027B   25013.94969737  .00000054  00000-0  16912-3 0  9996
2 01315  90.2393   3.9409 0032709 114.8930 273.3616 12.92651570819846
1 01315U 65027B   25014.51301272  .00000071  00000-0  23267-3 0  9994
2 01315  90.2394   3.9531 0032731 113.4963  14.7002 12.92651554819915
1 01315U 65027B   25014.95565936  .00000074  00000-0  24503-3 0  9998
2 01315  90.2394   3.9627 0032743 112.4043 274.5123 12.92651513819973
1 01315U 65027B   25015.44720413  .00000076  00000-0  25189-3 0  9999
2 01315  90.2395   3.9733 0032756 111.1925  41.8662 12.92651486820032
1 01315U 65027B   25015.96769341  .00000070  00000-0  22881-3 0  9999
2 01315  90.2396   3.9846 0032769 109.8954 303.9248 12.92651472820103
1 01315U 65027B   25016.45357067  .00000053  00000-0  16731-3 0  9990
2 01315  90.2397   3.9952 0032781 108.6995  44.9037 12.92651425820160
1  1315U 65027B   25016.45357067  .00000053  00000-0  16731-3 0  9990
2  1315  90.2397   3.9952 0032781 108.6995  44.9037 12.92651425820676
1 01315U 65027B   25016.97422817  .00000033  00000-0  91827-4 0  9991
2 01315  90.2398   4.0065 0032798 107.4128 307.7347 12.92651427820235
1 01315U 65027B   25017.37727376  .00000017  00000-0  35094-4 0  9990
2 01315  90.2399   4.0153 0032807 106.4121  23.2741 12.92651435820289
1 01315U 65027B   25017.69706679  .00000000  00000-0 -27294-4 0  9994
2 01315  90.2400   4.0222 0032814 105.6202  71.4024 12.92651417820322
1 01315U 65027B   25018.38254801 -.00000024  00000-0 -11606-3 0  9992
2 01315  90.2401   4.0371 0032829 103.9271  21.2237 12.92651480820410
1  1315U 65027B   25018.70263263 -.00000032  00000-0 -14704-3 0  9991
2  1315  90.2402   4.0441 0032838 103.1303  70.7130 12.92651507820968
1 01315U 65027B   25018.91010880 -.00000037  00000-0 -16331-3 0  9992
2 01315  90.2403   4.0486 0032840 102.6182 316.1831 12.92651538820486
1 01315U 65027B   25019.39037975 -.00000044  00000-0 -19074-3 0  9994
2 01315  90.2404   4.0590 0032849 101.4242  31.0851 12.92651556820548
1 01315U 65027B   25019.91855324 -.00000031  00000-0 -14383-3 0  9992
2 01315  90.2404   4.0704 0032855 100.1116 328.8980 12.92651713820611
1 01315U 65027B   25020.39434056 -.00000019  00000-0 -99867-4 0  9998
2 01315  90.2406   4.0808 0032862  98.9327  22.9318 12.92651761820670
1  1315U 65027B   25020.91610240  .00000001  00000-0 -25650-4 0  9996
2  1315  90.2406   4.0921 0032867  97.6302 290.9136 12.92651820821256
1 01315U 65027B   25021.47728900  .00000021  00000-0  47750-4 0  9997
2 01315  90.2406   4.1043 0032874  96.2393  22.3455 12.92651821820818
1 01315U 65027B   25021.92227779  .00000049  00000-0  15119-3 0  9998
2 01315  90.2407   4.1140 0032873  95.1342 293.0638 12.92651881820870
1 01315U 65027B   25022.48507302  .00000074  00000-0  24339-3 0  9995
2 01315  90.2408   4.1263 0032879  93.7459  31.9750 12.92651878820944
1 01315U 65027B   25023.48970197  .00000107  00000-0  36406-3 0  9997
2 01315  90.2409   4.1482 0032876  91.2593  26.9245 12.92651887821075
1  1315U 65027B   25023.48970197  .00000107  00000-0  36406-3 0  9997
2  1315  90.2409   4.1482 0032876  91.2593  26.9245 12.92651887821581
1 01315U 65027B   25023.94036000  .00000106  00000-0  36133-3 0  9990
2 01315  90.2409   4.1580 0032879  90.1443 324.0206 12.92651854821139
1 01315U 65027B   25024.49814764  .00000099  00000-0  33448-3 0  9999
2 01315  90.2410   4.1702 0032880  88.7651  39.6339 12.92651826821206
1 01315U 65027B   25024.94043583  .00000082  00000-0  27197-3 0  9998
2 01315  90.2410   4.1799 0032880  87.6717 297.7813 12.92651799821262
1 01315U 65027B   25025.43302410  .00000063  00000-0  20302-3 0  9990
2 01315  90.2411   4.1906 0032879  86.4481  70.0014 12.92651805821326
1 01315U 65027B   25025.87666814  .00000040  00000-0  11728-3 0  9996
2 01315  90.2411   4.2003 0032878  85.3530 334.4568 12.92651816821386
1  1315U 65027B   25025.95317646  .00000033  00000-0  93721-4 0  9997
2  1315  90.2411   4.2019 0032882  85.1630 330.4819 12.92651795821906
1 01315U 65027B   25026.43103187  .00000011  00000-0  12472-4 0  9994
2 01315  90.2412   4.2123 0032881  83.9751  34.1450 12.92651842821454
1 01315U 65027B   25026.96169473 -.00000017  00000-0 -90822-4 0  9995
2 01315  90.2413   4.2239 0032881  82.6583 343.5409 12.92651867821528
1 01315U 65027B   25027.43807771 -.00000033  00000-0 -14823-3 0  9992
2 01315  90.2415   4.2343 0032879  81.4734  40.3525 12.92651934821580
1 01315U 65027B   25027.88944630 -.00000042  00000-0 -18146-3 0  9999
2 01315  90.2415   4.2442 0032865  80.3715 340.7410 12.92652014821649
1 01315U 65027B   25028.44479978 -.00000040  00000-0 -17668-3 0  9996
2 01315  90.2417   4.2563 0032866  78.9958  45.0303 12.92652135821716
1 01315U 65027B   25028.68856610 -.00000038  00000-0 -16816-3 0  9995
2 01315  90.2418   4.2617 0032860  78.3973  99.3701 12.92652153821749
1 01315U 65027B   25029.37998630 -.00000023  00000-0 -11097-3 0  9991
2 01315  90.2420   4.2768 0032863  76.6893  76.8285 12.92652231821838
1 01315U 65027B   25029.69399398 -.00000011  00000-0 -69850-4 0  9990
2 01315  90.2420   4.2837 0032861  75.9095  98.0375 12.92652249821878
1  1315U 65027B   25030.20101024  .00000012  00000-0  15511-4 0  9990
2  1315  90.2421   4.2948 0032850  74.6517 297.3950 12.92652299822458
1 01315U 65027B   25030.45630781  .00000027  00000-0  70372-4 0  9996
2 01315  90.2422   4.3004 0032849  74.0251  45.3941 12.92652341821975
1 01315U 65027B   25030.70020383  .00000040  00000-0  11745-3 0  9998
2 01315  90.2422   4.3057 0032846  73.4240 100.3396 12.92652338822008
1 01315U 65027B   25031.46476507  .00000075  00000-0  24851-3 0  9995
2 01315  90.2423   4.3224 0032823  71.5314  58.1571 12.92652371822104
1 01315U 65027B   25031.70625745  .00000083  00000-0  27936-3 0  9998
2 01315  90.2423   4.3277 0032820  70.9313 101.9227 12.92652352822138
1 01315U 65027B   25032.46984444  .00000099  00000-0  33746-3 0  9999
2 01315  90.2424   4.3444 0032796  69.0352  55.2129 12.92652331822239
1  1315U 65027B   25032.46984444  .00000099  00000-0  33746-3 0  9999
2  1315  90.2424   4.3444 0032796  69.0352  55.2129 12.92652331822745
1 01315U 65027B   25033.40797319  .00000091  00000-0  30654-3 0  9994
2 01315  90.2426   4.3649 0032772  66.7079 100.7174 12.92652274822357
1 01315U 65027B   25034.40520502  .00000056  00000-0  17833-3 0  9998
2 01315  90.2427   4.3868 0032736  64.2323  61.2556 12.92652269822489
1 01315U 65027B   25034.93190912  .00000032  00000-0  91037-4 0  9997
2 01315  90.2427   4.3983 0032717  62.9256 352.2303 12.92652304822557
1  1315U 65027B   25034.93190912  .00000032  00000-0  91037-4 0  9997
2  1315  90.2427   4.3983 0032717  62.9256 352.2303 12.92652304823064
1 01315U 65027B   25035.15484238  .00000022  00000-0  53513-4 0  9995
2 01315  90.2429   4.4033 0032708  62.3684 309.6363 12.92652308822584
1 01315U 65027B   25036.34668987 -.00000012  00000-0 -71927-4 0  9992
2 01315  90.2432   4.4295 0032668  59.3944  95.8186 12.92652487822730
1 01315U 65027B   25036.94582648 -.00000016  00000-0 -86303-4 0  9995
2 01315  90.2433   4.4427 0032643  57.8966   3.8631 12.92652597822813
1  1315U 65027B   25036.94582648 -.00000016  00000-0 -86303-4 0  9995
2  1315  90.2433   4.4427 0032643  57.8966   3.8631 12.92652597823320
1 01315U 65027B   25037.42422009 -.00000012  00000-0 -71469-4 0  9996
2 01315  90.2435   4.4532 0032621  56.6990  70.0392 12.92652668822877
1 01315U 65027B   25037.95285080 -.00000001  00000-0 -31922-4 0  9998
2 01315  90.2436   4.4649 0032598  55.3847   9.9815 12.92652739822945
1 01315U 65027B   25038.87919696  .00000034  00000-0  99074-4 0  9993
2 01315  90.2437   4.4853 0032561  53.0748   0.6689 12.92652842823064
1  1315U 65027B   25039.17992626  .00000046  00000-0  14073-3 0  9999
2  1315  90.2438   4.4919 0032547  52.3222 320.0944 12.92652842823615
1 01315U 65027B   25039.43605280  .00000057  00000-0  18176-3 0  9995
2 01315  90.2438   4.4975 0032531  51.6800  71.9649 12.92652857823131
1 01315U 65027B   25039.88568971  .00000073  00000-0  24258-3 0  9995
2 01315  90.2438   4.5074 0032517  50.5617   4.3163 12.92652867823198
1 01315U 65027B   25040.36437610  .00000086  00000-0  28905-3 0  9992
2 01315  90.2439   4.5180 0032496  49.3663  71.8520 12.92652845823259
1 01315U 65027B   25040.89175325  .00000095  00000-0  32122-3 0  9998
2 01315  90.2439   4.5297 0032463  48.0391   5.9778 12.92652846823328
1  1315U 65027B   25041.19248721  .00000093  00000-0  31296-3 0  9992
2  1315  90.2440   4.5363 0032451  47.2890 325.4229 12.92652800823877
1 01315U 65027B   25041.37776319  .00000092  00000-0  31175-3 0  9996
2 01315  90.2440   4.5404 0032440  46.8226 107.5965 12.92652801823382
1 01315U 65027B   25041.89833198  .00000076  00000-0  25154-3 0  9994
2 01315  90.2440   4.5519 0032407  45.5184  10.0341 12.92652734823450
1 01315U 65027B   25042.45573211  .00000060  00000-0  19350-3 0  9998
2 01315  90.2442   4.5643 0032377  44.1198  83.8670 12.92652740823524
1 01315U 65027B   25042.89541360  .00000036  00000-0  10316-3 0  9992
2 01315  90.2443   4.5740 0032349  43.0203 329.8982 12.92652689823584
1  1315U 65027B   25043.39026612  .00000015  00000-0  28085-4 0  9996
2  1315  90.2444   4.5849 0032320  41.7764 112.6713 12.92652713824153
1 01315U 65027B   25043.46060233  .00000011  00000-0  12446-4 0  9991
2 01315  90.2444   4.5865 0032315  41.5970  79.9801 12.92652710823656
1 01315U 65027B   25043.91094168 -.00000010  00000-0 -65478-4 0  9999
2 01315  90.2445   4.5965 0032289  40.4675  15.6106 12.92652734823716
1 01315U 65027B   25044.63309252 -.00000034  00000-0 -15301-3 0  9997
2 01315  90.2447   4.6125 0032250  38.6483 136.1095 12.92652799823808
1 01315U 65027B   25045.63932375 -.00000041  00000-0 -17987-3 0  9996
2 01315  90.2450   4.6348 0032189  36.1136 138.5639 12.92652943823933
1  1315U 65027B   25045.63932375 -.00000041  00000-0 -17987-3 0  9996
2  1315  90.2450   4.6348 0032189  36.1136 138.5639 12.92652943824440
1 01315U 65027B   25045.92615006 -.00000039  00000-0 -17024-3 0  9996
2 01315  90.2450   4.6412 0032174  35.3936  33.2952 12.92652985823977
